STARLINK-30494          
1 57970U 23151G   26068.36049035 -.00001272  00000+0 -35691-4 0  9993
2 57970  43.0027 192.4566 0001155 241.5536 118.5200 15.28417441137406
STARLINK-35832          
1 66495U 25263L   26068.12481431  .00046717  00000+0  16968-2 0  9990
2 66495  43.0046 353.7896 0001688 256.5212 103.5452 15.27574085 18818
